TERRA                   
1 25994U 99068A   18091.82322317 -.00000182  00000+0 -30455-4 0  9991
2 25994  98.2113 167.7831 0000946  77.5320 282.5982 14.57090175972701
TERRA                   
1 25994U 99068A   18092.16657583  .00000067  00000+0  24934-4 0  9990
2 25994  98.2109 168.1219 0000868  76.5727 283.5625 14.57091493972758
TERRA                   
1 25994U 99068A   18092.30391572  .00000139  00000+0  40922-4 0  9994
2 25994  98.2107 168.2573 0000847  77.4170 282.7127 14.57091723972775
TERRA                   
1 25994U 99068A   18092.78460894  .00000241  00000+0  63648-4 0  9994
2 25994  98.2107 168.7310 0000920  79.2969 280.8338 14.57092285972842
TERRA                   
1 25994U 99068A   18093.19663237  .00000254  00000+0  66489-4 0  9996
2 25994  98.2097 169.1369 0000842  75.9449 284.1881 14.57092436972903
TERRA                   
1 25994U 99068A   18093.81466543  .00000262  00000+0  68174-4 0  9998
2 25994  98.2097 169.7459 0000846  77.7009 282.4274 14.57092763972994
TERRA                   
1 25994U 99068A   18094.08934732  .00000217  00000+0  58312-4 0  9991
2 25994  98.2098 170.0165 0000848  78.4105 281.7173 14.57092628973037
TERRA                   
1 25994U 99068A   18094.15801806  .00000174  00000+0  48580-4 0  9992
2 25994  98.2097 170.0845 0000839  78.9484 281.1813 14.57092549973044
TERRA                   
1 25994U 99068A   18094.63871101  .00000142  00000+0  41553-4 0  9998
2 25994  98.2097 170.5583 0000840  77.5003 282.6285 14.57092604973111
TERRA                   
1 25994U 99068A   18095.11940413  .00000150  00000+0  43439-4 0  9999
2 25994  98.2098 171.0320 0000845  76.2169 283.9126 14.57092844973182
TERRA                   
1 25994U 99068A   18095.18807449  .00000050  00000+0  21058-4 0  9999
2 25994  98.2096 171.0999 0000873  78.6656 281.4634 14.57092457973198
TERRA                   
1 25994U 99068A   18095.66876769  .00000037  00000+0  18284-4 0  9995
2 25994  98.2089 171.5735 0000793  75.3041 284.8249 14.57092518973261
TERRA                   
1 25994U 99068A   18095.80610850 -.00000002  00000+0  96832-5 0  9997
2 25994  98.2094 171.7095 0000770  76.2668 283.8605 14.57092258973286
TERRA                   
1 25994U 99068A   18096.08079125 -.00000030  00000+0  34623-5 0  9993
2 25994  98.2089 171.9802 0000797  84.2097 275.9192 14.57091796973326
TERRA                   
1 25994U 99068A   18096.49281413 -.00000051  00000+0 -12973-5 0  9991
2 25994  98.2087 172.3866 0000842  96.1463 263.9861 14.57091919973382
TERRA                   
1 25994U 99068A   18096.83616574 -.00000060  00000+0 -31937-5 0  9990
2 25994  98.2090 172.7250 0000902  99.8578 260.2710 14.57091815973435
TERRA                   
1 25994U 99068A   18096.90483645 -.00000171  00000+0 -27847-4 0  9996
2 25994  98.2091 172.7925 0000985  97.8958 262.2310 14.57091076973444
TERRA                   
1 25994U 99068A   18097.24818983 -.00000170  00000+0 -27770-4 0  9995
2 25994  98.2084 173.1315 0001036 114.0903 246.0469 14.57091455973495
TERRA                   
1 25994U 99068A   18097.79755166  .00000197  00000+0  53749-4 0  9990
2 25994  98.2093 173.6739 0001074 102.2879 257.8429 14.57092981973573
TERRA                   
1 25994U 99068A   18098.20957433  .00000371  00000+0  92389-4 0  9995
2 25994  98.2096 174.0801 0001085  96.7096 263.4247 14.57094042973639
TERRA                   
1 25994U 99068A   18098.82760715  .00000279  00000+0  72024-4 0  9999
2 25994  98.2097 174.6893 0001043  93.5486 266.5800 14.57093921973723
TERRA                   
1 25994U 99068A   18099.10228923  .00000309  00000+0  78764-4 0  9992
2 25994  98.2094 174.9601 0001040  89.9061 270.2254 14.57094204973769
TERRA                   
1 25994U 99068A   18099.23963000  .00000204  00000+0  55328-4 0  9993
2 25994  98.2094 175.0957 0001052  89.4250 270.7036 14.57093645973786
TERRA                   
1 25994U 99068A   18099.65165293  .00000212  00000+0  57019-4 0  9995
2 25994  98.2096 175.5020 0001036  88.9063 271.2251 14.57093804973841
TERRA                   
1 25994U 99068A   18100.20101587 -.00000006  00000+0  87233-5 0  9999
2 25994  98.2101 176.0435 0001105  86.1894 273.9404 14.57093245973920
TERRA                   
1 25994U 99068A   18100.26968678 -.00000034  00000+0  24819-5 0  9999
2 25994  98.2101 176.1111 0001111  86.6491 273.4828 14.57093093973934
TERRA                   
1 25994U 99068A   18100.75037976 -.00000145  00000+0 -22213-4 0  9990
2 25994  98.2101 176.5850 0001050  79.4959 280.6331 14.57092517974007
TERRA                   
1 25994U 99068A   18101.09373246 -.00000129  00000+0 -18494-4 0  9999
2 25994  98.2098 176.9234 0001056  77.0211 283.1109 14.57092562974059
TERRA                   
1 25994U 99068A   18101.43708386 -.00000054  00000+0 -19736-5 0  9992
2 25994  98.2096 177.2620 0000989  77.8576 282.2732 14.57093045974101
TERRA                   
1 25994U 99068A   18101.78043594 -.00000146  00000+0 -22365-4 0  9996
2 25994  98.2102 177.6009 0000939  81.6319 278.4981 14.57092596974155
TERRA                   
1 25994U 99068A   18102.19245793  .00000102  00000+0  32680-4 0  9998
2 25994  98.2097 178.0073 0000904  76.0001 284.1299 14.57093728974213
