OBJECT_NAME,OBJECT_ID,EPOCH,MEAN_MOTION,ECCENTRICITY,INCLINATION,RA_OF_ASC_NODE,ARG_OF_PERICENTER,MEAN_ANOMALY,EPHEMERIS_TYPE,CLASSIFICATION_TYPE,NORAD_CAT_ID,ELEMENT_SET_NO,REV_AT_EPOCH,BSTAR,MEAN_MOTION_DOT,MEAN_MOTION_DDOT
TERRA,1999-068A,2018-04-01T19:45:26.481888,14.57090175,.0000946,98.2113,167.7831,77.5320,282.5982,0,U,25994,999,97270,-.30455E-4,-.182E-5,0
TERRA,1999-068A,2018-04-02T03:59:52.151712,14.57091493,.0000868,98.2109,168.1219,76.5727,283.5625,0,U,25994,999,97275,.24934E-4,.67E-6,0
TERRA,1999-068A,2018-04-02T07:17:38.318208,14.57091723,.0000847,98.2107,168.2573,77.4170,282.7127,0,U,25994,999,97277,.40922E-4,.139E-5,0
TERRA,1999-068A,2018-04-02T18:49:50.212416,14.57092285,.000092,98.2107,168.7310,79.2969,280.8338,0,U,25994,999,97284,.63648E-4,.241E-5,0
TERRA,1999-068A,2018-04-03T04:43:09.036768,14.57092436,.0000842,98.2097,169.1369,75.9449,284.1881,0,U,25994,999,97290,.66489E-4,.254E-5,0
TERRA,1999-068A,2018-04-03T19:33:07.093152,14.57092763,.0000846,98.2097,169.7459,77.7009,282.4274,0,U,25994,999,97299,.68174E-4,.262E-5,0
TERRA,1999-068A,2018-04-04T02:08:39.608448,14.57092628,.0000848,98.2098,170.0165,78.4105,281.7173,0,U,25994,999,97303,.58312E-4,.217E-5,0
TERRA,1999-068A,2018-04-04T03:47:32.760384,14.57092549,.0000839,98.2097,170.0845,78.9484,281.1813,0,U,25994,999,97304,.4858E-4,.174E-5,0
TERRA,1999-068A,2018-04-04T15:19:44.631264,14.57092604,.000084,98.2097,170.5583,77.5003,282.6285,0,U,25994,999,97311,.41553E-4,.142E-5,0
TERRA,1999-068A,2018-04-05T02:51:56.516832,14.57092844,.0000845,98.2098,171.0320,76.2169,283.9126,0,U,25994,999,97318,.43439E-4,.15E-5,0
TERRA,1999-068A,2018-04-05T04:30:49.635936,14.57092457,.0000873,98.2096,171.0999,78.6656,281.4634,0,U,25994,999,97319,.21058E-4,.5E-6,0
TERRA,1999-068A,2018-04-05T16:03:01.528416,14.57092518,.0000793,98.2089,171.5735,75.3041,284.8249,0,U,25994,999,97326,.18284E-4,.37E-6,0
TERRA,1999-068A,2018-04-05T19:20:47.774400,14.57092258,.000077,98.2094,171.7095,76.2668,283.8605,0,U,25994,999,97328,.96832E-5,-.2E-7,0
TERRA,1999-068A,2018-04-06T01:56:20.364000,14.57091796,.0000797,98.2089,171.9802,84.2097,275.9192,0,U,25994,999,97332,.34623E-5,-.3E-6,0
TERRA,1999-068A,2018-04-06T11:49:39.140832,14.57091919,.0000842,98.2087,172.3866,96.1463,263.9861,0,U,25994,999,97338,-.12973E-5,-.51E-6,0
TERRA,1999-068A,2018-04-06T20:04:04.719936,14.57091815,.0000902,98.2090,172.7250,99.8578,260.2710,0,U,25994,999,97343,-.31937E-5,-.6E-6,0
TERRA,1999-068A,2018-04-06T21:42:57.869280,14.57091076,.0000985,98.2091,172.7925,97.8958,262.2310,0,U,25994,999,97344,-.27847E-4,-.171E-5,0
TERRA,1999-068A,2018-04-07T05:57:23.601312,14.57091455,.0001036,98.2084,173.1315,114.0903,246.0469,0,U,25994,999,97349,-.2777E-4,-.17E-5,0
TERRA,1999-068A,2018-04-07T19:08:28.463424,14.57092981,.0001074,98.2093,173.6739,102.2879,257.8429,0,U,25994,999,97357,.53749E-4,.197E-5,0
TERRA,1999-068A,2018-04-08T05:01:47.222112,14.57094042,.0001085,98.2096,174.0801,96.7096,263.4247,0,U,25994,999,97363,.92389E-4,.371E-5,0
TERRA,1999-068A,2018-04-08T19:51:45.257760,14.57093921,.0001043,98.2097,174.6893,93.5486,266.5800,0,U,25994,999,97372,.72024E-4,.279E-5,0
TERRA,1999-068A,2018-04-09T02:27:17.789472,14.57094204,.000104,98.2094,174.9601,89.9061,270.2254,0,U,25994,999,97376,.78764E-4,.309E-5,0
TERRA,1999-068A,2018-04-09T05:45:04.032000,14.57093645,.0001052,98.2094,175.0957,89.4250,270.7036,0,U,25994,999,97378,.55328E-4,.204E-5,0
TERRA,1999-068A,2018-04-09T15:38:22.813152,14.57093804,.0001036,98.2096,175.5020,88.9063,271.2251,0,U,25994,999,97384,.57019E-4,.212E-5,0
TERRA,1999-068A,2018-04-10T04:49:27.771168,14.57093245,.0001105,98.2101,176.0435,86.1894,273.9404,0,U,25994,999,97392,.87233E-5,-.6E-7,0
TERRA,1999-068A,2018-04-10T06:28:20.937792,14.57093093,.0001111,98.2101,176.1111,86.6491,273.4828,0,U,25994,999,97393,.24819E-5,-.34E-6,0
TERRA,1999-068A,2018-04-10T18:00:32.811264,14.57092517,.000105,98.2101,176.5850,79.4959,280.6331,0,U,25994,999,97400,-.22213E-4,-.145E-5,0
TERRA,1999-068A,2018-04-11T02:14:58.484544,14.57092562,.0001056,98.2098,176.9234,77.0211,283.1109,0,U,25994,999,97405,-.18494E-4,-.129E-5,0
TERRA,1999-068A,2018-04-11T10:29:24.045504,14.57093045,.0000989,98.2096,177.2620,77.8576,282.2732,0,U,25994,999,97410,-.19736E-5,-.54E-6,0
TERRA,1999-068A,2018-04-11T18:43:49.665216,14.57092596,.0000939,98.2102,177.6009,81.6319,278.4981,0,U,25994,999,97415,-.22365E-4,-.146E-5,0
TERRA,1999-068A,2018-04-12T04:37:08.365152,14.57093728,.0000904,98.2097,178.0073,76.0001,284.1299,0,U,25994,999,97421,.3268E-4,.102E-5,0
